{
  "type": "FeatureCollection",
  "features": [
    {
      "type": "Feature",
      "properties": {
        "norad_id": 66647,
        "name": "COSMOS 2597 (RODNIK-S 22)",
        "group": "last-30-days",
        "lat": -14.308837912240815,
        "lon": -84.81274197595141,
        "alt_km": 1503.2314255319898,
        "timestamp": "2025-12-27T18:38:02.202493+00:00",
        "meta_object_name": "COSMOS 2597 (RODNIK-S 22)",
        "meta_object_id": "2025-273A",
        "meta_epoch": "2025-12-26T19:30:39.240288",
        "meta_mean_motion": 12.41952314,
        "meta_eccentricity": 0.00075998,
        "meta_inclination": 82.4993,
        "meta_ra_of_asc_node": 277.7108,
        "meta_arg_of_pericenter": 252.7737,
        "meta_mean_anomaly": 107.251,
        "meta_ephemeris_type": 0,
        "meta_classification_type": "U",
        "meta_norad_cat_id": 66647,
        "meta_element_set_no": 999,
        "meta_rev_at_epoch": 388,
        "meta_bstar": 9.9658941e-05,
        "meta_mean_motion_dot": 2.3e-07,
        "meta_mean_motion_ddot": 0,
        "tle_line1": "1 66647U 25273A   25360.81295417  .00000023  00000+0  99659-4 0  9997",
        "tle_line2": "2 66647  82.4993 277.7108 0007599 252.7737 107.2510 12.41952314  3888"
      },
      "geometry": {
        "type": "Point",
        "coordinates": [
          -84.81274197595141,
          -14.308837912240815
        ]
      }
    },
    {
      "type": "Feature",
      "properties": {
        "norad_id": 66648,
        "name": "COSMOS 2598 (RODNIK-S 23)",
        "group": "last-30-days",
        "lat": 82.48317552159507,
        "lon": 10.864368132878184,
        "alt_km": 1487.7525368753604,
        "timestamp": "2025-12-27T18:38:02.202503+00:00",
        "meta_object_name": "COSMOS 2598 (RODNIK-S 23)",
        "meta_object_id": "2025-273B",
        "meta_epoch": "2025-12-27T08:29:29.094144",
        "meta_mean_motion": 12.43233733,
        "meta_eccentricity": 0.0008264,
        "meta_inclination": 82.5032,
        "meta_ra_of_asc_node": 277.3584,
        "meta_arg_of_pericenter": 202.0633,
        "meta_mean_anomaly": 158.0092,
        "meta_ephemeris_type": 0,
        "meta_classification_type": "U",
        "meta_norad_cat_id": 66648,
        "meta_element_set_no": 999,
        "meta_rev_at_epoch": 395,
        "meta_bstar": 0.00015723,
        "meta_mean_motion_dot": 3.2e-07,
        "meta_mean_motion_ddot": 0,
        "tle_line1": "1 66648U 25273B   25361.35380896  .00000032  00000+0  15723-3 0  9993",
        "tle_line2": "2 66648  82.5032 277.3584 0008264 202.0633 158.0092 12.43233733  3957"
      },
      "geometry": {
        "type": "Point",
        "coordinates": [
          10.864368132878184,
          82.48317552159507
        ]
      }
    },
    {
      "type": "Feature",
      "properties": {
        "norad_id": 66649,
        "name": "COSMOS 2599 (RODNIK-S 24)",
        "group": "last-30-days",
        "lat": -74.43665593672392,
        "lon": -111.05350213717561,
        "alt_km": 1505.5077750403116,
        "timestamp": "2025-12-27T18:38:02.202515+00:00",
        "meta_object_name": "COSMOS 2599 (RODNIK-S 24)",
        "meta_object_id": "2025-273C",
        "meta_epoch": "2025-12-27T11:18:21.464928",
        "meta_mean_motion": 12.4115244,
        "meta_eccentricity": 0.0006359,
        "meta_inclination": 82.505,
        "meta_ra_of_asc_node": 277.3405,
        "meta_arg_of_pericenter": 239.1431,
        "meta_mean_anomaly": 120.9022,
        "meta_ephemeris_type": 0,
        "meta_classification_type": "U",
        "meta_norad_cat_id": 66649,
        "meta_element_set_no": 999,
        "meta_rev_at_epoch": 396,
        "meta_bstar": 0.00016804,
        "meta_mean_motion_dot": 3.3e-07,
        "meta_mean_motion_ddot": 0,
        "tle_line1": "1 66649U 25273C   25361.47108177  .00000033  00000+0  16804-3 0  9999",
        "tle_line2": "2 66649  82.5050 277.3405 0006359 239.1431 120.9022 12.41152440  3965"
      },
      "geometry": {
        "type": "Point",
        "coordinates": [
          -111.05350213717561,
          -74.43665593672392
        ]
      }
    },
    {
      "type": "Feature",
      "properties": {
        "norad_id": 66650,
        "name": "BEE-1000",
        "group": "last-30-days",
        "lat": -9.94743287043655,
        "lon": -69.94387699795216,
        "alt_km": 603.8711318020287,
        "timestamp": "2025-12-27T18:38:02.202525+00:00",
        "meta_object_name": "BEE-1000",
        "meta_object_id": "2025-274A",
        "meta_epoch": "2025-12-27T09:01:10.623360",
        "meta_mean_motion": 14.91711551,
        "meta_eccentricity": 0.0011281,
        "meta_inclination": 97.7406,
        "meta_ra_of_asc_node": 288.2959,
        "meta_arg_of_pericenter": 197.9205,
        "meta_mean_anomaly": 162.1617,
        "meta_ephemeris_type": 0,
        "meta_classification_type": "U",
        "meta_norad_cat_id": 66650,
        "meta_element_set_no": 999,
        "meta_rev_at_epoch": 458,
        "meta_bstar": 0.00018183,
        "meta_mean_motion_dot": 1.776e-05,
        "meta_mean_motion_ddot": 0,
        "tle_line1": "1 66650U 25274A   25361.37581740  .00001776  00000+0  18183-3 0  9999",
        "tle_line2": "2 66650  97.7406 288.2959 0011281 197.9205 162.1617 14.91711551  4583"
      },
      "geometry": {
        "type": "Point",
        "coordinates": [
          -69.94387699795216,
          -9.94743287043655
        ]
      }
    },
    {
      "type": "Feature",
      "properties": {
        "norad_id": 66651,
        "name": "2025-274B",
        "group": "last-30-days",
        "lat": 3.772412765111337,
        "lon": -71.82026113577953,
        "alt_km": 602.3730313325814,
        "timestamp": "2025-12-27T18:38:02.202536+00:00",
        "meta_object_name": "2025-274B",
        "meta_object_id": "2025-274B",
        "meta_epoch": "2025-12-27T08:57:31.819680",
        "meta_mean_motion": 14.9190671,
        "meta_eccentricity": 0.0011482,
        "meta_inclination": 97.7398,
        "meta_ra_of_asc_node": 288.2977,
        "meta_arg_of_pericenter": 196.3327,
        "meta_mean_anomaly": 163.7524,
        "meta_ephemeris_type": 0,
        "meta_classification_type": "U",
        "meta_norad_cat_id": 66651,
        "meta_element_set_no": 999,
        "meta_rev_at_epoch": 458,
        "meta_bstar": 0.00038466,
        "meta_mean_motion_dot": 3.839e-05,
        "meta_mean_motion_ddot": 0,
        "tle_line1": "1 66651U 25274B   25361.37328495  .00003839  00000+0  38466-3 0  9994",
        "tle_line2": "2 66651  97.7398 288.2977 0011482 196.3327 163.7524 14.91906710  4582"
      },
      "geometry": {
        "type": "Point",
        "coordinates": [
          -71.82026113577953,
          3.772412765111337
        ]
      }
    },
    {
      "type": "Feature",
      "properties": {
        "norad_id": 66652,
        "name": "2025-274C",
        "group": "last-30-days",
        "lat": 16.340887566403598,
        "lon": -73.58482961936971,
        "alt_km": 600.0411021599357,
        "timestamp": "2025-12-27T18:38:02.202546+00:00",
        "meta_object_name": "2025-274C",
        "meta_object_id": "2025-274C",
        "meta_epoch": "2025-12-27T07:17:34.697184",
        "meta_mean_motion": 14.9198926,
        "meta_eccentricity": 0.0010985,
        "meta_inclination": 97.7405,
        "meta_ra_of_asc_node": 288.2366,
        "meta_arg_of_pericenter": 203.156,
        "meta_mean_anomaly": 156.9165,
        "meta_ephemeris_type": 0,
        "meta_classification_type": "U",
        "meta_norad_cat_id": 66652,
        "meta_element_set_no": 999,
        "meta_rev_at_epoch": 457,
        "meta_bstar": 0.00032243,
        "meta_mean_motion_dot": 3.215e-05,
        "meta_mean_motion_ddot": 0,
        "tle_line1": "1 66652U 25274C   25361.30387381  .00003215  00000+0  32243-3 0  9992",
        "tle_line2": "2 66652  97.7405 288.2366 0010985 203.1560 156.9165 14.91989260  4572"
      },
      "geometry": {
        "type": "Point",
        "coordinates": [
          -73.58482961936971,
          16.340887566403598
        ]
      }
    },
    {
      "type": "Feature",
      "properties": {
        "norad_id": 66653,
        "name": "2025-274D",
        "group": "last-30-days",
        "lat": 16.58840224899514,
        "lon": -73.62187626578898,
        "alt_km": 600.7649169159649,
        "timestamp": "2025-12-27T18:38:02.202557+00:00",
        "meta_object_name": "2025-274D",
        "meta_object_id": "2025-274D",
        "meta_epoch": "2025-12-27T07:17:30.231168",
        "meta_mean_motion": 14.91976029,
        "meta_eccentricity": 0.0011979,
        "meta_inclination": 97.7403,
        "meta_ra_of_asc_node": 288.2361,
        "meta_arg_of_pericenter": 199.9827,
        "meta_mean_anomaly": 160.0924,
        "meta_ephemeris_type": 0,
        "meta_classification_type": "U",
        "meta_norad_cat_id": 66653,
        "meta_element_set_no": 999,
        "meta_rev_at_epoch": 457,
        "meta_bstar": 0.00024974,
        "meta_mean_motion_dot": 2.477e-05,
        "meta_mean_motion_ddot": 0,
        "tle_line1": "1 66653U 25274D   25361.30382212  .00002477  00000+0  24974-3 0  9992",
        "tle_line2": "2 66653  97.7403 288.2361 0011979 199.9827 160.0924 14.91976029  4576"
      },
      "geometry": {
        "type": "Point",
        "coordinates": [
          -73.62187626578898,
          16.58840224899514
        ]
      }
    }
  ]
}